OBJECT_NAME,OBJECT_ID,EPOCH,MEAN_MOTION,ECCENTRICITY,INCLINATION,RA_OF_ASC_NODE,ARG_OF_PERICENTER,MEAN_ANOMALY,EPHEMERIS_TYPE,CLASSIFICATION_TYPE,NORAD_CAT_ID,ELEMENT_SET_NO,REV_AT_EPOCH,BSTAR,MEAN_MOTION_DOT,MEAN_MOTION_DDOT
COSMOS 2534 (758),2019-030A,2026-07-07T21:13:12.402912,2.13102297,.0013559,64.3703,191.9194,274.9800,262.1964,0,U,44299,999,5536,0,.124E-5,0
BEIDOU-3 IGSO-2 (C39),2019-035A,2026-07-07T19:26:52.772064,1.00260158,.0039633,55.2504,158.6819,216.3902,321.3360,0,U,44337,999,2587,0,-.72E-6,0
GPS BIII-2  (PRN 18),2019-056A,2026-07-07T14:04:18.290784,2.00569960,.0063098,55.6263,330.3332,198.0173,159.0165,0,U,44506,999,5047,0,-.71E-6,0
BEIDOU-3 M24 (C46),2019-061A,2026-07-07T15:31:14.321856,1.86229361,.0008571,54.3975,182.0377,359.1404,0.8665,0,U,44542,999,4617,0,.121E-5,0
BEIDOU-3 M23 (C45),2019-061B,2026-07-07T18:47:17.090016,1.86227400,.0005857,54.3961,182.0018,339.4265,23.3222,0,U,44543,999,4618,0,.121E-5,0
EUTELSAT 5 WEST B (EGNOS/PRN 121),2019-067A,2026-07-07T17:08:41.415072,1.00271345,.0003154,0.0653,340.8282,126.8720,70.1461,0,U,44624,999,2464,0,-.27E-6,0
BEIDOU-3 M22 (C44),2019-078A,2026-07-05T08:08:09.837600,1.86227646,.00059141,53.9186,299.1896,49.8831,310.1966,0,U,44793,999,4498,0,-.58E-6,0
BEIDOU-3 M21 (C43),2019-078B,2026-07-05T11:29:35.042784,1.86228113,.0003864,53.8912,299.1453,48.4464,311.6147,0,U,44794,999,4499,0,-.58E-6,0
COSMOS 2544 (759),2019-088A,2026-07-07T04:58:54.388416,2.13103181,.00125753,65.5757,73.0630,256.0344,103.8880,0,U,44850,999,5114,0,-.19E-6,0
BEIDOU-3 M19 (C41),2019-090A,2026-07-07T01:28:43.605984,1.86231712,.00170908,56.5756,62.1346,297.4421,241.2360,0,U,44864,999,4460,0,-.43E-6,0
BEIDOU-3 M20 (C42),2019-090B,2026-07-06T22:17:09.972096,1.86231636,.00149428,56.5768,62.1737,312.1641,226.9103,0,U,44865,999,4458,0,-.42E-6,0
BEIDOU-3 G2 (C60),2020-017A,2026-07-07T20:58:13.837728,1.00270555,.0002376,2.9032,47.6264,53.9504,218.8925,0,U,45344,999,2346,0,-.127E-5,0
COSMOS 2545 (760),2020-018A,2026-07-07T20:55:22.412352,2.13102750,.0009182,64.3414,311.6924,229.9531,129.9792,0,U,45358,999,4910,0,-.52E-6,0
BEIDOU-3 G3 (C61),2020-040A,2026-07-07T21:06:58.000608,1.00268335,.0002058,2.4947,67.4782,333.9594,311.6748,0,U,45807,999,2227,0,-.34E-5,0
GPS BIII-3  (PRN 23),2020-041A,2026-07-06T04:19:38.517024,2.00558250,.00647244,56.6823,28.2076,204.5515,154.8185,0,U,45854,999,4441,0,-.55E-6,0
GALAXY 30 (WAAS/PRN 135),2020-056C,2026-07-06T18:19:48.356832,1.00270907,.00021864,0.0206,38.7570,67.2773,328.6685,0,U,46114,999,2148,0,.52E-6,0
COSMOS 2547 (705K),2020-075A,2026-07-06T15:41:18.199104,2.13100180,.00094427,64.6011,191.8258,239.8670,120.0683,0,U,46805,999,4432,0,.115E-5,0
GPS BIII-4  (PRN 14),2020-078A,2026-07-07T10:41:50.343648,2.00564900,.00743247,53.9783,209.9572,207.6315,322.4373,0,U,46826,999,4191,0,.1E-5,0
GPS BIII-5  (PRN 11),2021-054A,2026-07-07T10:49:57.438336,2.00567664,.00261955,55.1638,331.6461,228.4720,132.0146,0,U,48859,999,3716,0,-.72E-6,0
QZS-1R (QZSS/PRN 196),2021-096A,2026-07-07T14:19:35.596128,1.00248309,.0755406,37.5005,79.2823,272.1222,281.4736,0,U,49336,999,1721,0,-.264E-5,0
GSAT0223 (GALILEO 27),2021-116A,2026-07-07T12:43:58.897920,1.70476066,.0002092,57.1541,341.1269,192.1025,172.9175,0,U,49809,999,2853,0,-.72E-6,0
GSAT0224 (GALILEO 28),2021-116B,2026-07-07T08:24:14.312160,1.70476148,.00016312,57.1546,341.1306,175.8676,191.0805,0,U,49810,999,2855,0,-.71E-6,0
COSMOS 2557 (706K),2022-075A,2026-07-07T06:53:27.542976,2.13102498,.00105957,64.2857,313.7776,272.6042,87.2866,0,U,52984,999,3114,0,-.5E-6,0
COSMOS 2559 (707K),2022-130A,2026-07-07T13:49:32.467872,2.13101678,.0012956,64.2580,313.8500,180.1855,179.8260,0,U,54031,999,2912,0,-.51E-6,0
COSMOS 2564 (761),2022-161A,2026-07-06T22:47:57.933312,2.13102000,.00122562,64.7434,192.0556,225.0920,134.8385,0,U,54377,999,2805,0,.118E-5,0
GPS BIII-6  (PRN 28),2023-009A,2026-07-07T03:27:15.945120,2.00570128,.00062216,55.1244,147.7348,319.7654,217.2991,0,U,55268,999,2564,0,.76E-6,0
BEIDOU-3 G4 (C62),2023-066A,2026-07-06T07:36:57.282624,1.00266978,.00050564,0.4680,336.2679,178.9368,23.3032,0,U,56564,999,1158,0,-.268E-5,0
NVS-01 (IRNSS-1J),2023-076A,2026-07-07T17:47:07.857024,1.00268687,.0003285,2.1205,243.4344,7.5935,71.0102,0,U,56759,999,1132,0,-.319E-5,0
COSMOS 2569 (703K),2023-114A,2026-07-07T10:21:25.485408,2.13103726,.0009941,65.3135,71.9380,296.3813,63.5792,0,U,57517,999,2269,0,-.21E-6,0
BEIDOU-3 M28 (C50),2023-207A,2026-07-05T00:27:15.772320,1.86229759,.00027082,55.7683,61.7016,358.6416,1.4251,0,U,58654,999,1717,0,-.39E-6,0
BEIDOU-3 M26 (C48),2023-207B,2026-07-06T23:08:31.365024,1.86229712,.00022961,55.7724,61.6226,323.9570,36.0904,0,U,58655,999,1719,0,-.44E-6,0
